0 THORAD AGENA D DEB
1 04651U 70025AK  13281.86272906  .00001281  00000-0  10112-2 0  8465
2 04651 100.1338 053.4164 0052974 117.1302 010.6652 13.93136273189106
0 THORAD AGENA D DEB
1 04651U 70025AK  13282.93845726  .00001265  00000-0  99946-3 0  8476
2 04651 100.1339 054.5931 0052841 114.3330 005.7244 13.93139673189259
0 THORAD AGENA D DEB
1 04651U 70025AK  13286.24111235  .00000797  00000-0  64431-3 0  8497
2 04651 100.1345 058.2060 0052590 105.6958 009.4996 13.93145557189714
0 THORAD AGENA D DEB
1 04651U 70025AK  13287.30696992  .00000689  00000-0  56197-3 0  8505
2 04651 100.1348 059.3720 0052494 102.9107 315.0956 13.93147784189863
0 THORAD AGENA D DEB
1 04651U 70025AK  13288.31277903  .00000771  00000-0  62408-3 0  8519
2 04651 100.1349 060.4724 0052408 100.2785 319.5451 13.93150548190008
0 THORAD AGENA D DEB
1 04651U 70025AK  13289.60633282  .00000550  00000-0  45685-3 0  8522
2 04651 100.1352 061.8876 0052331 096.9255 327.1074 13.93153265190187
0 THORAD AGENA D DEB
1 04651U 70025AK  13290.61196998  .00000529  00000-0  44110-3 0  8532
2 04651 100.1353 062.9880 0052234 094.2878 330.7215 13.93154322190327
0 THORAD AGENA D DEB
1 04651U 70025AK  13291.91471674  .00000540  00000-0  44913-3 0  8548
2 04651 100.1351 064.4135 0052117 090.8559 024.4667 13.93154851190508
0 THORAD AGENA D DEB
1 04651U 70025AK  13292.92117962  .00000657  00000-0  53827-3 0  8551
2 04651 100.1351 065.5148 0052077 088.2088 032.2428 13.93155683190648
0 THORAD AGENA D DEB
1 04651U 70025AK  13294.13395508  .00000780  00000-0  63163-3 0  8562
2 04651 100.1349 066.8418 0052009 084.9946 354.7806 13.93157004190810
0 THORAD AGENA D DEB
1 04651U 70025AK  13295.34990021  .00000951  00000-0  76083-3 0  8573
2 04651 100.1349 068.1723 0051977 081.7808 333.2120 13.93158489190986
